satname,norad_id,inclination_deg,eccentricity,mean_motion_rev_per_day,perigee_km,apogee_km,l1,l2
STARLINK-1263,45405,53.0548,0.0001296,15.06397378,546.3220677877143,548.1171202168789,1 45405U 20019AX  25256.15786181  .00000268  00000+0  36914-4 0  9999,2 45405  53.0548 213.5910 0001296  85.0767 275.0370 15.06397378303107
STARLINK-1265,45406,53.0575,0.0001424,15.06396389,546.2364539446844,548.2087963659296,1 45406U 20019AY  25256.16523263 -.00000028  00000+0  16986-4 0  9993,2 45406  53.0575 213.5577 0001424  91.0965 269.0187 15.06396389303107
STARLINK-1278,45408,53.0543,0.0001398,15.06393344,546.2637911144657,548.2001242750366,1 45408U 20019BA  25256.25831175  .00000814  00000+0  73560-4 0  9992,2 45408  53.0543 243.1416 0001398  91.0095 269.1055 15.06393344302707
STARLINK-1296,45412,53.0547,0.00017,15.06399141,546.0368809483989,548.3915003532202,1 45412U 20019BE  25256.16892727  .00001436  00000+0  11531-3 0  9997,2 45412  53.0547 213.5413 0001700  88.0931 272.0253 15.06399141303105
STARLINK-1298,45413,53.0515,0.000854,15.41049153,437.1863876660582,448.83690955788734,1 45413U 20019BF  25256.23572817  .00089708  00000+0  21215-2 0  9998,2 45413  53.0515 203.0864 0008540  64.0839 296.1044 15.41049153303351
STARLINK-1309,45414,53.0552,0.000145,15.0638859,546.2423475540836,548.250708777251,1 45414U 20019BG  25255.91827993 -.00000428  00000+0 -98492-5 0  9999,2 45414  53.0552 214.6676 0001450  91.8929 268.2226 15.06388590303054
STARLINK-1316,45415,53.0546,0.0001386,15.06389192,546.284825198416,548.2045410009714,1 45415U 20019BH  25256.14312361 -.00000722  00000+0 -29592-4 0  9995,2 45415  53.0546 213.6543 0001386  88.8418 271.2730 15.06389192303128
STARLINK-1318,45416,53.0533,0.0001095,15.54888063,401.73555858814143,403.2205132810104,1 45416U 20019BJ  25256.24002003  .00029144  00000+0  43424-3 0  9992,2 45416  53.0533 198.3878 0001095 112.0874 248.0253 15.54888063303337
STARLINK-1286,45417,53.0533,0.0001209,15.06389129,546.4075975191045,548.0821548567656,1 45417U 20019BK  25256.24725010 -.00000195  00000+0  58268-5 0  9993,2 45417  53.0533 243.1922 0001209 105.5290 254.5833 15.06389129302974
STARLINK-1308,45419,53.0542,0.0001302,15.06393417,546.3300509494647,548.1334169677884,1 45419U 20019BM  25256.24356488  .00000846  00000+0  75678-4 0  9999,2 45419  53.0542 243.2091 0001302  82.3286 277.7851 15.06393417302720
STARLINK-1329,45531,53.0554,0.0001398,15.06394031,546.2616858380643,548.1980184099184,1 45531U 20025A   25255.54876021  .00000352  00000+0  42510-4 0  9994,2 45531  53.0554 186.3245 0001398  90.1794 269.9356 15.06394031298249
STARLINK-1338,45532,53.0491,0.0001238,15.06395419,546.3682381894305,548.0829579687143,1 45532U 20025B   25256.22328835 -.00001099  00000+0 -54893-4 0  9994,2 45532  53.0491 183.2955 0001238  91.2501 268.8630 15.06395419298340
STARLINK-1350,45535,53.0727,0.0002992,15.30841749,471.2496421791766,475.3495418358334,1 45535U 20025E   25255.67203628  .00006328  00000+0  22124-3 0  9996,2 45535  53.0727 145.8589 0002992 101.9126 258.2210 15.30841749298843
STARLINK-1362,45538,53.0527,0.0001122,15.06428308,546.3477849801147,547.901813727889,1 45538U 20025H   25256.18910859  .00000378  00000+0  44217-4 0  9994,2 45538  53.0527 183.1657 0001122  92.1885 267.9233 15.06428308298344
STARLINK-1368,45540,53.0554,0.0001215,15.06384122,546.4187863863845,548.1016579113666,1 45540U 20025K   25256.06111434  .00000346  00000+0  42112-4 0  9993,2 45540  53.0554 184.0236 0001215  86.9400 273.1728 15.06384122298317
STARLINK-1371,45542,53.0544,0.0001655,15.06399401,546.0672482974423,548.3595392777861,1 45542U 20025M   25256.23065840 -.00000660  00000+0 -25402-4 0  9997,2 45542  53.0544 183.2650 0001655  90.5801 269.5378 15.06399401298342
STARLINK-1372,45543,53.0514,0.0001377,15.06351389,546.4069066462425,548.3141886708681,1 45543U 20025N   25256.20118508  .00011620  00000+0  79871-3 0  9999,2 45543  53.0514 183.3958 0001377  94.8202 265.2944 15.06351389297439
STARLINK-1373,45544,53.0534,8.26e-05,15.0639424,546.6571763158618,547.8012468140123,1 45544U 20025P   25256.21960459 -.00000417  00000+0 -90932-5 0  9998,2 45544  53.0534 183.3163 0000826  83.8245 276.2838 15.06394240298341
STARLINK-1294,45551,53.0519,0.0005483,15.49011042,415.89064910576326,423.34506708314893,1 45551U 20025W   25255.39161168  .00072319  00000+0  13093-2 0  9992,2 45551  53.0519 137.1283 0005483 156.3084 203.8177 15.49011042298922
STARLINK-1323,45553,53.0376,0.0007844,15.85927989,308.4639324309719,318.96210674169834,1 45553U 20025Y   25256.25002315  .00138824  00000+0  54684-3 0  9994,2 45553  53.0376 118.0593 0007844  75.5417  66.9964 15.85927989  5375
STARLINK-1325,45554,53.06,8.91e-05,15.45502265,429.2960692073402,430.50926187573987,1 45554U 20025Z   25256.07606863  .00038827  00000+0  80148-3 0  9999,2 45554  53.0600 125.3718 0000891 176.4953 183.6059 15.45502265299152
STARLINK-1327,45555,53.0546,0.0001574,15.06391473,546.1476381119073,548.327746064976,1 45555U 20025AA  25255.46214116  .00000434  00000+0  48068-4 0  9997,2 45555  53.0546 166.7135 0001574  88.9943 271.1226 15.06391473298500
STARLINK-1336,45557,53.0431,0.0009675,15.80606912,322.23435820447594,335.212132779503,1 45557U 20025AC  25256.25002315  .00151800  00000+0  76627-3 0  9998,2 45557  53.0431 123.3018 0009675  88.8001 311.3500 15.80606912  5921
STARLINK-1342,45558,53.0448,0.000681,15.89566486,298.9472217661123,308.04760783907295,1 45558U 20025AD  25256.25002315  .00208098  26761-4  70329-3 0  9991,2 45558  53.0448 120.4525 0006810  87.8779  87.5045 15.89566486  5948
STARLINK-1355,45563,53.0319,0.0006992,16.02727566,262.2227022006691,271.51507843769105,1 45563U 20025AJ  25255.17517005  .00444751  99634-4  72518-3 0  9993,2 45563  53.0319  55.5153 0006992 298.0691  61.9632 16.02727566300036
STARLINK-1356,45564,53.0527,0.0001147,15.06389903,546.448162932792,548.0368449910002,1 45564U 20025AK  25255.73123143  .00003812  00000+0  27473-3 0  9995,2 45564  53.0527 165.5049 0001147  86.9294 273.1826 15.06389903298540
STARLINK-1357,45565,53.0668,0.0008687,15.24362806,486.73077558665227,498.6681668717674,1 45565U 20025AL  25255.72961198  .00021343  00000+0  87086-3 0  9990,2 45565  53.0668 157.9128 0008687  85.0664 275.1325 15.24362806298658
STARLINK-1361,45567,53.054,0.0001496,15.06385443,546.2201345872272,548.29221222471,1 45567U 20025AN  25256.01503514  .00000185  00000+0  31326-4 0  9997,2 45567  53.0540 164.2339 0001496  82.5232 277.5927 15.06385443298597
STARLINK-1363,45568,53.0531,0.0001288,15.06392411,546.3428293378483,548.1268051179668,1 45568U 20025AP  25256.16250815  .00001336  00000+0  10858-3 0  9992,2 45568  53.0531 163.8138 0001288  72.1552 287.9577 15.06392411298600
STARLINK-1366,45569,53.0545,0.0001058,15.06384488,546.526393484688,547.9918072995315,1 45569U 20025AQ  25256.01872036  .00000017  00000+0  20004-4 0  9992,2 45569  53.0545 164.2135 0001058  96.0680 264.0430 15.06384488298586
STARLINK-1376,45570,53.0543,0.0001452,15.06385011,546.2519301643597,548.2630647264168,1 45570U 20025AR  25256.01135684  .00000244  00000+0  35315-4 0  9998,2 45570  53.0543 164.2487 0001452  82.7664 277.3490 15.06385011298584
STARLINK-1320,45572,53.0573,0.000855,15.34199241,457.45057469222957,469.1494319679241,1 45572U 20025AT  25255.99722815  .00058750  00000+0  17456-2 0  9993,2 45572  53.0573 118.5809 0008550 145.7572 214.3982 15.34199241299243
STARLINK-1321,45573,53.0544,0.0001631,15.06393884,546.1007752537689,548.3598300678959,1 45573U 20025AU  25255.73213536  .00001318  00000+0  10735-3 0  9993,2 45573  53.0544 155.5014 0001631  90.8216 269.2960 15.06393884298386
STARLINK-1328,45576,53.0539,0.000156,15.52609607,408.0513097375351,410.16893083906507,1 45576U 20025AX  25256.08546802  .00072972  00000+0  11630-2 0  9998,2 45576  53.0539 148.6658 0001560 129.4410 230.6738 15.52609607298824
STARLINK-1331,45578,53.0543,0.0001493,15.06387886,546.2147257694533,548.2826459352482,1 45578U 20025AZ  25255.97541272  .00000968  00000+0  83868-4 0  9993,2 45578  53.0543 154.4093 0001493  86.3695 273.7465 15.06387886298736
STARLINK-1333,45580,53.0562,0.0001456,15.06390562,546.2321492382835,548.2488191616812,1 45580U 20025BB  25256.18090978  .00000682  00000+0  64681-4 0  9997,2 45580  53.0562 163.4889 0001456  88.9646 271.1510 15.06390562298611
STARLINK-1335,45581,53.0552,0.000187,15.06399274,545.9187424281827,548.5088236210331,1 45581U 20025BC  25255.72108087  .00000685  00000+0  64866-4 0  9996,2 45581  53.0552 155.5525 0001870  83.2427 276.8775 15.06399274298686
STARLINK-1337,45582,53.0523,0.0001224,15.0639675,546.3738548554065,548.0691826207931,1 45582U 20025BD  25256.14128602 -.00000933  00000+0 -43740-4 0  9995,2 45582  53.0523 153.6666 0001224  83.4563 276.6565 15.06396750298744
STARLINK-1347,45586,53.0586,0.00078,15.23680576,489.38941690278534,500.1111210423833,1 45586U 20025BH  25256.09784694  .00023506  00000+0  97719-3 0  9995,2 45586  53.0586 146.4876 0007800  90.8208 269.3682 15.23680576298834
STARLINK-1349,45587,53.04,0.0002503,16.11613322,240.76409154225803,244.0783429858202,1 45587U 20025BJ  25255.25972801  .00720409  29918-3  67178-3 0  9997,2 45587  53.0400 105.5199 0002503 265.8642  94.2106 16.11613322299341
STARLINK-1360,45588,53.0489,6.76e-05,15.65449367,371.49038999559525,372.40300131124604,1 45588U 20025BK  25255.24412535  .00044511  00000+0  44003-3 0  9992,2 45588  53.0489  84.2348 0000676 289.1224  70.9717 15.65449367299648
STARLINK-1364,45589,53.0561,0.000148,15.06385699,546.2304307167724,548.280346863854,1 45589U 20025BL  25256.01227883  .00000635  00000+0  61549-4 0  9993,2 45589  53.0561 154.2474 0001480  91.7040 268.4119 15.06385699298725
STARLINK-1365,45590,53.0548,0.0001418,15.06392531,546.2524317705975,548.2164671136579,1 45590U 20025BM  25256.09428251 -.00000024  00000+0  17262-4 0  9991,2 45590  53.0548 183.8750 0001418  92.0141 268.1010 15.06392531298331
